sat12427
1 12427U 78026ET  20046.61516148  .00000270  00000-0  11665-3 0  9994
2 12427  99.1674  77.0697 0124837 207.1573 277.5889 14.28879596 40379
